******** Week 115 almanac for PRN-17 ********
ID:                         17
Health:                     000
Eccentricity:               0.1335239410E-001
Time of Applicability(s):  589824.0000
Orbital Inclination(rad):   0.9817620853
Rate of Right Ascen(r/s):  -0.7840326581E-008
SQRT(A)  (m 1/2):           5153.576172
Right Ascen at Week(rad):   0.1345614239E+001
Argument of Perigee(rad):  -1.564087033
Mean Anom(rad):            -0.9801208457E+000
Af0(s):                     0.4644393921E-003
Af1(s/s):                   0.7275957614E-011
week:                        115

******** Week 115 almanac for PRN-18 ********
ID:                         18
Health:                     000
Eccentricity:               0.1580238342E-002
Time of Applicability(s):  589824.0000
Orbital Inclination(rad):   0.9684116588
Rate of Right Ascen(r/s):  -0.8183198006E-008
SQRT(A)  (m 1/2):           5153.607910
Right Ascen at Week(rad):   0.2354319334E+001
Argument of Perigee(rad):   2.880858239
Mean Anom(rad):            -0.2874547796E+001
Af0(s):                     0.3442764282E-003
Af1(s/s):                  -0.3637978807E-011
week:                        115

******** Week 115 almanac for PRN-19 ********
ID:                         19
Health:                     000
Eccentricity:               0.9326934814E-002
Time of Applicability(s):  589824.0000
Orbital Inclination(rad):   0.9803000099
Rate of Right Ascen(r/s):  -0.7863184676E-008
SQRT(A)  (m 1/2):           5153.595703
Right Ascen at Week(rad):   0.1390753945E+001
Argument of Perigee(rad):   1.870854354
Mean Anom(rad):             0.1457573489E+001
Af0(s):                     0.1811981201E-004
Af1(s/s):                   0.3637978807E-011
week:                        115

******** Week 115 almanac for PRN-20 ********
ID:                         20
Health:                     000
Eccentricity:               0.6092071533E-002
Time of Applicability(s):  589824.0000
Orbital Inclination(rad):   0.9390203472
Rate of Right Ascen(r/s):  -0.8011762293E-008
SQRT(A)  (m 1/2):           5151.697266
Right Ascen at Week(rad):  -0.3049974752E+001
Argument of Perigee(rad):   3.041522878
Mean Anom(rad):            -0.2413378343E+001
Af0(s):                     0.5207061768E-003
Af1(s/s):                   0.0000000000E+000
week:                        115

******** Week 115 almanac for PRN-21 ********
ID:                         21
Health:                     000
Eccentricity:               0.2401733398E-001
Time of Applicability(s):  589824.0000
Orbital Inclination(rad):   0.9574221245
Rate of Right Ascen(r/s):  -0.8240343243E-008
SQRT(A)  (m 1/2):           5153.621094
Right Ascen at Week(rad):   0.2258448905E+001
Argument of Perigee(rad):  -1.121547433
Mean Anom(rad):            -0.8544602555E+000
Af0(s):                     0.1277923584E-003
Af1(s/s):                   0.3637978807E-011
week:                        115

******** Week 115 almanac for PRN-22 ********
ID:                         22
Health:                     000
Eccentricity:               0.6975173950E-002
Time of Applicability(s):  589824.0000
Orbital Inclination(rad):   0.9357306775
Rate of Right Ascen(r/s):  -0.7988904198E-008
SQRT(A)  (m 1/2):           5153.753906
Right Ascen at Week(rad):  -0.3003645986E+001
Argument of Perigee(rad):  -0.934181192
Mean Anom(rad):            -0.2025224278E+001
Af0(s):                    -0.5788803101E-003
Af1(s/s):                   0.1091393642E-010
week:                        115

******** Week 115 almanac for PRN-23 ********
ID:                         23
Health:                     000
Eccentricity:               0.1330375671E-002
Time of Applicability(s):  589824.0000
Orbital Inclination(rad):   0.9649841704
Rate of Right Ascen(r/s):  -0.7691748964E-008
SQRT(A)  (m 1/2):           5153.617188
Right Ascen at Week(rad):  -0.2929635907E+001
Argument of Perigee(rad):   2.618256158
Mean Anom(rad):             0.2671626031E+001
Af0(s):                     0.9250640869E-004
Af1(s/s):                  -0.3637978807E-011
week:                        115

******** Week 115 almanac for PRN-24 ********
ID:                         24
Health:                     000
Eccentricity:               0.1117706299E-001
Time of Applicability(s):  589824.0000
Orbital Inclination(rad):   0.9346820578
Rate of Right Ascen(r/s):  -0.8206056101E-008
SQRT(A)  (m 1/2):           5153.653320
Right Ascen at Week(rad):  -0.8797656954E+000
Argument of Perigee(rad):   0.742352326
Mean Anom(rad):            -0.2850455384E+001
Af0(s):                     0.1497268677E-003
Af1(s/s):                   0.1818989404E-010
week:                        115

******** Week 115 almanac for PRN-25 ********
ID:                         25
Health:                     000
Eccentricity:               0.9843826294E-002
Time of Applicability(s):  589824.0000
Orbital Inclination(rad):   0.9609634630
Rate of Right Ascen(r/s):  -0.7623174679E-008
SQRT(A)  (m 1/2):           5153.564941
Right Ascen at Week(rad):   0.2356225949E+000
Argument of Perigee(rad):   0.970700121
Mean Anom(rad):             0.1479581769E+001
Af0(s):                     0.1630783081E-003
Af1(s/s):                   0.7275957614E-011
week:                        115

******** Week 115 almanac for PRN-26 ********
ID:                         26
Health:                     000
Eccentricity:               0.5910873413E-002
Time of Applicability(s):  589824.0000
Orbital Inclination(rad):   0.9418666006
Rate of Right Ascen(r/s):  -0.7851755629E-008
SQRT(A)  (m 1/2):           5153.530273
Right Ascen at Week(rad):   0.1930257910E+000
Argument of Perigee(rad):   0.303069064
Mean Anom(rad):             0.7994197065E+000
Af0(s):                     0.1029968262E-003
Af1(s/s):                   0.3637978807E-011
week:                        115

******** Week 115 almanac for PRN-27 ********
ID:                         27
Health:                     000
Eccentricity:               0.9444236755E-002
Time of Applicability(s):  589824.0000
Orbital Inclination(rad):   0.9755662410
Rate of Right Ascen(r/s):  -0.7886042771E-008
SQRT(A)  (m 1/2):           5153.643066
Right Ascen at Week(rad):   0.1284670710E+001
Argument of Perigee(rad):   0.634950825
Mean Anom(rad):            -0.1044415089E+001
Af0(s):                    -0.1535415649E-003
Af1(s/s):                  -0.7275957614E-011
week:                        115

******** Week 115 almanac for PRN-29 ********
ID:                         29
Health:                     000
Eccentricity:               0.1952648163E-002
Time of Applicability(s):  589824.0000
Orbital Inclination(rad):   0.9836376165
Rate of Right Ascen(r/s):  -0.7828897534E-008
SQRT(A)  (m 1/2):           5153.576660
Right Ascen at Week(rad):   0.1358143371E+001
Argument of Perigee(rad):   2.192817672
Mean Anom(rad):            -0.8872303695E+000
Af0(s):                    -0.3709793091E-003
Af1(s/s):                  -0.7275957614E-011
week:                        115

******** Week 115 almanac for PRN-30 ********
ID:                         30
Health:                     000
Eccentricity:               0.5319595337E-002
Time of Applicability(s):  589824.0000
Orbital Inclination(rad):   0.9365515969
Rate of Right Ascen(r/s):  -0.8148910863E-008
SQRT(A)  (m 1/2):           5153.615723
Right Ascen at Week(rad):  -0.7842592875E+000
Argument of Perigee(rad):  -2.754587577
Mean Anom(rad):             0.2317461101E+001
Af0(s):                    -0.4434585571E-003
Af1(s/s):                  -0.3637978807E-011
week:                        115

******** Week 115 almanac for PRN-31 ********
ID:                         31
Health:                     000
Eccentricity:               0.1003694534E-001
Time of Applicability(s):  589824.0000
Orbital Inclination(rad):   0.9556484592
Rate of Right Ascen(r/s):  -0.7943188009E-008
SQRT(A)  (m 1/2):           5153.492188
Right Ascen at Week(rad):  -0.7837960223E+000
Argument of Perigee(rad):   0.266546015
Mean Anom(rad):             0.1928675243E+001
Af0(s):                    -0.1249313354E-003
Af1(s/s):                  -0.3637978807E-011
week:                        115

******** Week 115 almanac for PRN-32 ********
ID:                         32
Health:                     000
Eccentricity:               0.5032062531E-002
Time of Applicability(s):  589824.0000
Orbital Inclination(rad):   0.9570446214
Rate of Right Ascen(r/s):  -0.7748894201E-008
SQRT(A)  (m 1/2):           5153.630859
Right Ascen at Week(rad):  -0.1863622623E+001
Argument of Perigee(rad):  -2.359890126
Mean Anom(rad):            -0.2890411539E+000
Af0(s):                     0.1716613770E-004
Af1(s/s):                   0.0000000000E+000
week:                        115